*******************************************************************************
 Revised: Sep 29, 2024           SMAP spacecraft  / (Earth)             -140376
 
 SMAP (2015-003A)
 
  SMAP is designed to measure global soil moisture over a three-year period,
  every 2-3 days. This permits changes around the world to be observed over
  time scales ranging from major storms to repeated measurements of changes
  over the seasons.
 
  The data will help improve understanding of how water and carbon in various
  forms circulate.
 
 Launched: 2015-Jan-31 14:22:00 UTC by Delta 2 7320 from Vandenberg AFB, USA
*******************************************************************************


*******************************************************************************
Ephemeris / WWW_USER Sun Sep 29 07:14:14 2024 Pasadena, USA      / Horizons
*******************************************************************************
Target body name: SMAP (spacecraft) (-140376)     {source: SMAP}
Center body name: Earth (399)                     {source: DE441}
Center-site name: BODY CENTER
*******************************************************************************
Start time      : A.D. 2017-Jan-01 00:00:00.0000 TDB
Stop  time      : A.D. 2017-Jan-03 00:00:00.0000 TDB
Step-size       : 1 minutes
*******************************************************************************
Center geodetic : 0.0, 0.0, 0.0                   {E-lon(deg),Lat(deg),Alt(km)}
Center cylindric: 0.0, 0.0, 0.0                   {E-lon(deg),Dxy(km),Dz(km)}
Center radii    : 6378.137, 6378.137, 6356.752 km {Equator_a, b, pole_c}
Output units    : KM-S
Calendar mode   : Mixed Julian/Gregorian
Output type     : GEOMETRIC cartesian states
Output format   : 3 (position, velocity, LT, range, range-rate)
EOP file        : eop.240927.p241221
EOP coverage    : DATA-BASED 1962-JAN-20 TO 2024-SEP-27. PREDICTS-> 2024-DEC-20
Reference frame : Ecliptic of J2000.0
*******************************************************************************
            JDTDB,            Calendar Date (TDB),                      X,                      Y,                      Z,                     VX,                     VY,                     VZ,                     LT,                     RG,                     RR,
**************************************************************************************************************************************************************************************************************************************************************************
$$SOE
2457755.043750000, A.D. 2017-Jan-01 13:03:00.0000,  4.731528592909841E+03, -4.302762996378901E+02, -5.231745255355451E+03,  5.373202724024077E+00,  2.380273382428993E+00,  4.667831597298191E+00,  2.357325071245073E-02,  7.067082774135855E+03, -3.059071409115758E-03,
2457755.044444445, A.D. 2017-Jan-01 13:04:00.0000,  5.044105230801205E+03, -2.866730768998282E+02, -4.941227625124347E+03,  5.042458367695212E+00,  2.404873336600196E+00,  5.012811548135616E+00,  2.357260183507845E-02,  7.066888245593479E+03, -3.419427436669608E-03,
2457755.045138889, A.D. 2017-Jan-01 13:05:00.0000,  5.336211328251789E+03, -1.418866474243550E+02, -4.630611296764922E+03,  4.691080224447971E+00,  2.419699456190433E+00,  5.337559407937478E+00,  2.357187839015453E-02,  7.066671362261511E+03, -3.805256866616343E-03,
2457755.045833333, A.D. 2017-Jan-01 13:06:00.0000,  5.606650645655429E+03,  3.494224311507878E+00, -4.301150868123136E+03,  4.320474867168437E+00,  2.424680507011558E+00,  5.640733099000849E+00,  2.357107553863053E-02,  7.066430673429719E+03, -4.214077215413640E-03,
2457755.046527778, A.D. 2017-Jan-01 13:07:00.0000,  5.854313839982731E+03,  1.488776991458622E+02, -3.954178960553348E+03,  3.932131406636408E+00,  2.419785290798235E+00,  5.921074795502158E+00,  2.357018900549344E-02,  7.066164897481452E+03, -4.642688033747313E-03,
2457755.047222222, A.D. 2017-Jan-01 13:08:00.0000,  6.078183250968598E+03,  2.936712792517333E+02, -3.591100985468749E+03,  3.527615904566847E+00,  2.405023086737889E+00,  6.177416833742027E+00,  2.356921521952373E-02,  7.065872963792030E+03, -5.087208047117146E-03,
2457755.047916667, A.D. 2017-Jan-01 13:09:00.0000,  6.277337337976029E+03,  4.372842453237167E+02, -3.213389565065661E+03,  3.108565314177909E+00,  2.380443914386211E+00,  6.408687327138011E+00,  2.356815144454878E-02,  7.065554052077529E+03, -5.543124805383149E-03,
2457755.048611111, A.D. 2017-Jan-01 13:10:00.0000,  6.450954739686379E+03,  5.791301039021209E+02, -2.822578626468963E+03,  2.676680964843397E+00,  2.346138607197208E+00,  6.613915433553599E+00,  2.356699589976180E-02,  7.065207628465512E+03, -6.005356121585684E-03,
2457755.049305555, A.D. 2017-Jan-01 13:11:00.0000,  6.598317929976993E+03,  7.186290332067555E+02, -2.420257191681567E+03,  2.233721615040009E+00,  2.302238687561043E+00,  6.792236222810845E+00,  2.356574786683434E-02,  7.064833477606524E+03, -6.468322382119912E-03,
2457755.050000000, A.D. 2017-Jan-01 13:12:00.0000,  6.718816445015769E+03,  8.552103153635805E+02, -2.008062888803876E+03,  1.781496105403160E+00,  2.248916036247236E+00,  6.942895093784561E+00,  2.356440778174540E-02,  7.064431730203781E+03, -6.926028625711162E-03,
2457755.050694444, A.D. 2017-Jan-01 13:13:00.0000,  6.811949658718294E+03,  9.883147425460818E+02, -1.587675212945876E+03,  1.321855651025510E+00,  2.186382351444476E+00,  7.065251693311684E+00,  2.356297730948170E-02,  7.064002885407745E+03, -7.372155120321326E-03,
2457755.051388889, A.D. 2017-Jan-01 13:14:00.0000,  6.877329086255617E+03,  1.117396984336695E+03, -1.160808568004526E+03,  8.566858189320569E-01,  2.114888395109439E+00,  7.158783293224141E+00,  2.356145940002793E-02,  7.063547827601579E+03, -7.800155018252466E-03,
2457755.052083333, A.D. 2017-Jan-01 13:15:00.0000,  6.914680198229978E+03,  1.241927903551998E+03, -7.292051229550107E+02,  3.878982427322927E-01,  2.034723027016275E+00,  7.223087587033819E+00,  2.355985832435707E-02,  7.063067837190767E+03, -8.203357542770769E-03,
2457755.052777778, A.D. 2017-Jan-01 13:16:00.0000,  6.923843731404860E+03,  1.361396807877299E+03, -2.946275184383190E+02, -8.257786841511765E-02,  1.946212029658858E+00,  7.257884874034391E+00,  2.355817968944781E-02,  7.062564595105236E+03, -8.575075056808039E-03,
2457755.053472222, A.D. 2017-Jan-01 13:17:00.0000,  6.904776485422814E+03,  1.475313624924517E+03,  1.411485388383628E+02, -5.528043653534761E-01,  1.849716729920070E+00,  7.263019605670077E+00,  2.355643043169062E-02,  7.062040180822533E+03, -8.908712287703418E-03,
2457755.054166667, A.D. 2017-Jan-01 13:18:00.0000,  6.857551598700735E+03,  1.583210988758618E+03,  5.763417550789616E+02, -1.020842875011366E+00,  1.745632426106100E+00,  7.238461276758126E+00,  2.355461878839369E-02,  7.061497063825526E+03, -9.197875932959071E-03,
2457755.054861111, A.D. 2017-Jan-01 13:19:00.0000,  6.782358300580975E+03,  1.684646226527269E+03,  1.009172762131715E+03, -1.484763531543139E+00,  1.634386631470095E+00,  7.184304652321748E+00,  2.355275424745650E-02,  7.060938088514923E+03, -9.436482851752312E-03,
2457755.055555556, A.D. 2017-Jan-01 13:20:00.0000,  6.679501140757734E+03,  1.779203234562836E+03,  1.437871624039303E+03, -1.942653656920930E+00,  1.516437147645866E+00,  7.100769329156800E+00,  2.355084747563882E-02,  7.060366452704856E+03, -9.618865056018755E-03,
2457755.056250000, A.D. 2017-Jan-01 13:21:00.0000,  6.549398700908893E+03,  1.866494234190657E+03,  1.860685297653378E+03, -2.392626326605475E+00,  1.392269983412762E+00,  6.988198639577645E+00,  2.354891022620914E-02,  7.059785679936574E+03, -9.739869753500052E-03,
2457755.056944444, A.D. 2017-Jan-01 13:22:00.0000,  6.392581797263073E+03,  1.946161398453004E+03,  2.275885008240821E+03, -2.832828758472299E+00,  1.262397135861983E+00,  6.847057912824184E+00,  2.354695522710260E-02,  7.059199585949036E+03, -9.794952762849888E-03,
2457755.057638889, A.D. 2017-Jan-01 13:23:00.0000,  6.209691186443351E+03,  2.017878342021872E+03,  2.681773502158811E+03, -3.261450466944154E+00,  1.127354252288939E+00,  6.677932117133816E+00,  2.354499605105057E-02,  7.058612239744743E+03, -9.780263716865335E-03,
2457755.058333333, A.D. 2017-Jan-01 13:24:00.0000,  6.001474790281955E+03,  2.081351467701172E+03,  3.076692140258712E+03, -3.676731129148022E+00,  9.876981919664112E-01,  6.481522912277402E+00,  2.354304696945358E-02,  7.058027919781941E+03, -9.692721592854078E-03,
2457755.059027778, A.D. 2017-Jan-01 13:25:00.0000,  5.768784458333439E+03,  2.136321164083959E+03,  3.459027797645813E+03, -4.076968115706547E+00,  8.440045073440834E-01,  6.258645148243501E+00,  2.354112279205378E-02,  7.057451065909626E+03, -9.530079257224568E-03,
2457755.059722222, A.D. 2017-Jan-01 13:26:00.0000,  5.512572289476271E+03,  2.182562850106428E+03,  3.827219537714256E+03, -4.460523645290519E+00,  6.968648641722024E-01,  6.010222850578323E+00,  2.353923869471486E-02,  7.056886227737277E+03, -9.290975882217807E-03,
2457755.060416667, A.D. 2017-Jan-01 13:27:00.0000,  5.233886536247441E+03,  2.219887863401429E+03,  4.179765030925733E+03, -4.825831529078436E+00,  5.468844195764140E-01,  5.737284736538597E+00,  2.353741003783403E-02,  7.056338010196138E+03, -8.974976283946995E-03,
2457755.061111111, A.D. 2017-Jan-01 13:28:00.0000,  4.933867117377414E+03,  2.248144190475524E+03,  4.515226691534822E+03, -5.171403478555059E+00,  3.946791762477966E-01,  5.440959308621189E+00,  2.353565217808723E-02,  7.055811017101822E+03, -8.582596438993470E-03,
2457755.061805556, A.D. 2017-Jan-01 13:29:00.0000,  4.613740765373988E+03,  2.267217037792513E+03,  4.832237508306222E+03, -5.495834957390689E+00,  2.408733297006398E-01,  5.122469573172897E+00,  2.353398027634062E-02,  7.055309793567673E+03, -8.115314658825788E-03,
